[{"OBJECT_NAME":"KUIPER-00175","OBJECT_ID":"2025-301C","EPOCH":"2026-03-07T01:00:35.601408","MEAN_MOTION":15.30857421,"ECCENTRICITY":0.0002055,"INCLINATION":51.8769,"RA_OF_ASC_NODE":77.762,"ARG_OF_PERICENTER":52.9501,"MEAN_ANOMALY":307.167,"EPHEMERIS_TYPE":0,"CLASSIFICATION_TYPE":"U","NORAD_CAT_ID":67135,"ELEMENT_SET_NO":999,"REV_AT_EPOCH":1340,"BSTAR":0.00088041,"MEAN_MOTION_DOT":0.00026368,"MEAN_MOTION_DDOT":0},{"OBJECT_NAME":"KUIPER-00179","OBJECT_ID":"2025-301D","EPOCH":"2026-03-07T04:00:03.000096","MEAN_MOTION":15.10392038,"ECCENTRICITY":0.0002616,"INCLINATION":51.8844,"RA_OF_ASC_NODE":78.5059,"ARG_OF_PERICENTER":88.4148,"MEAN_ANOMALY":308.946,"EPHEMERIS_TYPE":0,"CLASSIFICATION_TYPE":"U","NORAD_CAT_ID":67136,"ELEMENT_SET_NO":999,"REV_AT_EPOCH":590,"BSTAR":-0.094607,"MEAN_MOTION_DOT":-0.01439947,"MEAN_MOTION_DDOT":0},{"OBJECT_NAME":"KUIPER-00181","OBJECT_ID":"2025-301E","EPOCH":"2026-03-07T01:51:39.378240","MEAN_MOTION":14.76411058,"ECCENTRICITY":0.0001948,"INCLINATION":51.9025,"RA_OF_ASC_NODE":88.5856,"ARG_OF_PERICENTER":91.2965,"MEAN_ANOMALY":268.8219,"EPHEMERIS_TYPE":0,"CLASSIFICATION_TYPE":"U","NORAD_CAT_ID":67137,"ELEMENT_SET_NO":999,"REV_AT_EPOCH":1334,"BSTAR":0.00046225,"MEAN_MOTION_DOT":3.029e-5,"MEAN_MOTION_DDOT":0},{"OBJECT_NAME":"KUIPER-00183","OBJECT_ID":"2025-301F","EPOCH":"2026-03-07T04:00:03.000096","MEAN_MOTION":15.28554319,"ECCENTRICITY":0.0015254,"INCLINATION":51.8672,"RA_OF_ASC_NODE":78.1609,"ARG_OF_PERICENTER":45.0458,"MEAN_ANOMALY":91.9833,"EPHEMERIS_TYPE":0,"CLASSIFICATION_TYPE":"U","NORAD_CAT_ID":67138,"ELEMENT_SET_NO":999,"REV_AT_EPOCH":579,"BSTAR":2.3298e-6,"MEAN_MOTION_DOT":-2.98e-6,"MEAN_MOTION_DDOT":0},{"OBJECT_NAME":"KUIPER-00184","OBJECT_ID":"2025-301G","EPOCH":"2026-03-07T04:00:03.000096","MEAN_MOTION":15.33926921,"ECCENTRICITY":0.0012055,"INCLINATION":51.8638,"RA_OF_ASC_NODE":77.8124,"ARG_OF_PERICENTER":45.012,"MEAN_ANOMALY":278.283,"EPHEMERIS_TYPE":0,"CLASSIFICATION_TYPE":"U","NORAD_CAT_ID":67139,"ELEMENT_SET_NO":999,"REV_AT_EPOCH":572,"BSTAR":-0.024288,"MEAN_MOTION_DOT":-0.00747622,"MEAN_MOTION_DDOT":0},{"OBJECT_NAME":"KUIPER-00186","OBJECT_ID":"2025-301H","EPOCH":"2026-03-07T01:54:16.066368","MEAN_MOTION":14.79990782,"ECCENTRICITY":8.14e-5,"INCLINATION":51.9009,"RA_OF_ASC_NODE":89.6536,"ARG_OF_PERICENTER":113.6627,"MEAN_ANOMALY":246.4421,"EPHEMERIS_TYPE":0,"CLASSIFICATION_TYPE":"U","NORAD_CAT_ID":67140,"ELEMENT_SET_NO":999,"REV_AT_EPOCH":1317,"BSTAR":0.0005243,"MEAN_MOTION_DOT":3.783e-5,"MEAN_MOTION_DDOT":0},{"OBJECT_NAME":"KUIPER-00187","OBJECT_ID":"2025-301J","EPOCH":"2026-03-07T01:50:19.498848","MEAN_MOTION":14.79935697,"ECCENTRICITY":8.32e-5,"INCLINATION":51.9019,"RA_OF_ASC_NODE":92.1766,"ARG_OF_PERICENTER":110.1242,"MEAN_ANOMALY":249.981,"EPHEMERIS_TYPE":0,"CLASSIFICATION_TYPE":"U","NORAD_CAT_ID":67141,"ELEMENT_SET_NO":999,"REV_AT_EPOCH":1313,"BSTAR":0.00057428,"MEAN_MOTION_DOT":4.16e-5,"MEAN_MOTION_DDOT":0},{"OBJECT_NAME":"KUIPER-00188","OBJECT_ID":"2025-301K","EPOCH":"2026-03-07T01:52:24.077280","MEAN_MOTION":15.37922872,"ECCENTRICITY":0.0009836,"INCLINATION":51.8688,"RA_OF_ASC_NODE":77.9631,"ARG_OF_PERICENTER":37.1798,"MEAN_ANOMALY":322.9868,"EPHEMERIS_TYPE":0,"CLASSIFICATION_TYPE":"U","NORAD_CAT_ID":67142,"ELEMENT_SET_NO":999,"REV_AT_EPOCH":1333,"BSTAR":0.0012532,"MEAN_MOTION_DOT":0.00047437,"MEAN_MOTION_DDOT":0},{"OBJECT_NAME":"KUIPER-00191","OBJECT_ID":"2025-301L","EPOCH":"2026-03-07T04:00:03.000096","MEAN_MOTION":14.82693891,"ECCENTRICITY":0.0004171,"INCLINATION":51.8999,"RA_OF_ASC_NODE":84.3448,"ARG_OF_PERICENTER":54.487,"MEAN_ANOMALY":177.7139,"EPHEMERIS_TYPE":0,"CLASSIFICATION_TYPE":"U","NORAD_CAT_ID":67143,"ELEMENT_SET_NO":999,"REV_AT_EPOCH":517,"BSTAR":-0.0048341,"MEAN_MOTION_DOT":-0.00039377,"MEAN_MOTION_DDOT":0},{"OBJECT_NAME":"KUIPER-00196","OBJECT_ID":"2025-301M","EPOCH":"2026-03-07T00:47:41.152416","MEAN_MOTION":15.38693586,"ECCENTRICITY":0.0003883,"INCLINATION":51.8685,"RA_OF_ASC_NODE":77.6893,"ARG_OF_PERICENTER":16.4321,"MEAN_ANOMALY":343.6792,"EPHEMERIS_TYPE":0,"CLASSIFICATION_TYPE":"U","NORAD_CAT_ID":67144,"ELEMENT_SET_NO":999,"REV_AT_EPOCH":1333,"BSTAR":0.00098324,"MEAN_MOTION_DOT":0.0003799,"MEAN_MOTION_DDOT":0},{"OBJECT_NAME":"KUIPER-00204","OBJECT_ID":"2025-301N","EPOCH":"2026-03-07T00:57:40.363200","MEAN_MOTION":15.25996958,"ECCENTRICITY":0.0003082,"INCLINATION":51.8849,"RA_OF_ASC_NODE":82.8445,"ARG_OF_PERICENTER":346.2587,"MEAN_ANOMALY":13.831,"EPHEMERIS_TYPE":0,"CLASSIFICATION_TYPE":"U","NORAD_CAT_ID":67145,"ELEMENT_SET_NO":999,"REV_AT_EPOCH":1337,"BSTAR":0.00077672,"MEAN_MOTION_DOT":0.00019961,"MEAN_MOTION_DDOT":0},{"OBJECT_NAME":"KUIPER-00210","OBJECT_ID":"2025-301P","EPOCH":"2026-03-07T04:00:03.000096","MEAN_MOTION":14.83390903,"ECCENTRICITY":0.0007102,"INCLINATION":51.899,"RA_OF_ASC_NODE":84.3386,"ARG_OF_PERICENTER":65.0223,"MEAN_ANOMALY":331.6524,"EPHEMERIS_TYPE":0,"CLASSIFICATION_TYPE":"U","NORAD_CAT_ID":67146,"ELEMENT_SET_NO":999,"REV_AT_EPOCH":585,"BSTAR":-0.00595,"MEAN_MOTION_DOT":-0.0004918,"MEAN_MOTION_DDOT":0},{"OBJECT_NAME":"KUIPER-00221","OBJECT_ID":"2025-301Q","EPOCH":"2026-03-07T02:38:56.355936","MEAN_MOTION":14.79933243,"ECCENTRICITY":7.3e-5,"INCLINATION":51.9,"RA_OF_ASC_NODE":92.0098,"ARG_OF_PERICENTER":66.3197,"MEAN_ANOMALY":293.7841,"EPHEMERIS_TYPE":0,"CLASSIFICATION_TYPE":"U","NORAD_CAT_ID":67147,"ELEMENT_SET_NO":999,"REV_AT_EPOCH":1314,"BSTAR":-0.00018394,"MEAN_MOTION_DOT":-1.623e-5,"MEAN_MOTION_DDOT":0},{"OBJECT_NAME":"KUIPER-00232","OBJECT_ID":"2025-301R","EPOCH":"2026-03-07T04:00:03.000096","MEAN_MOTION":15.1163999,"ECCENTRICITY":0.0003293,"INCLINATION":51.889,"RA_OF_ASC_NODE":78.3104,"ARG_OF_PERICENTER":135.533,"MEAN_ANOMALY":287.4915,"EPHEMERIS_TYPE":0,"CLASSIFICATION_TYPE":"U","NORAD_CAT_ID":67148,"ELEMENT_SET_NO":999,"REV_AT_EPOCH":557,"BSTAR":-0.069246,"MEAN_MOTION_DOT":-0.01101286,"MEAN_MOTION_DDOT":0},{"OBJECT_NAME":"KUIPER-00241","OBJECT_ID":"2025-301S","EPOCH":"2026-03-07T01:09:21.530304","MEAN_MOTION":14.79919538,"ECCENTRICITY":9.76e-5,"INCLINATION":51.902,"RA_OF_ASC_NODE":87.2918,"ARG_OF_PERICENTER":109.7534,"MEAN_ANOMALY":250.3534,"EPHEMERIS_TYPE":0,"CLASSIFICATION_TYPE":"U","NORAD_CAT_ID":67149,"ELEMENT_SET_NO":999,"REV_AT_EPOCH":1353,"BSTAR":-0.0033876,"MEAN_MOTION_DOT":-0.00025938,"MEAN_MOTION_DDOT":0},{"OBJECT_NAME":"KUIPER-00245","OBJECT_ID":"2025-301T","EPOCH":"2026-03-07T02:35:06.434304","MEAN_MOTION":14.79889528,"ECCENTRICITY":8.42e-5,"INCLINATION":51.9015,"RA_OF_ASC_NODE":94.5439,"ARG_OF_PERICENTER":121.5941,"MEAN_ANOMALY":238.5104,"EPHEMERIS_TYPE":0,"CLASSIFICATION_TYPE":"U","NORAD_CAT_ID":67150,"ELEMENT_SET_NO":999,"REV_AT_EPOCH":1310,"BSTAR":-0.0010038,"MEAN_MOTION_DOT":-7.857e-5,"MEAN_MOTION_DDOT":0},{"OBJECT_NAME":"KUIPER-00246","OBJECT_ID":"2025-301U","EPOCH":"2026-03-07T04:00:03.000096","MEAN_MOTION":15.03970962,"ECCENTRICITY":0.0004944,"INCLINATION":51.8887,"RA_OF_ASC_NODE":79.8593,"ARG_OF_PERICENTER":59.4795,"MEAN_ANOMALY":34.8491,"EPHEMERIS_TYPE":0,"CLASSIFICATION_TYPE":"U","NORAD_CAT_ID":67151,"ELEMENT_SET_NO":999,"REV_AT_EPOCH":575,"BSTAR":-0.041419,"MEAN_MOTION_DOT":-0.005427,"MEAN_MOTION_DDOT":0}]
