KUIPER-00175            
1 67135U 25301C   26066.04207872  .00026368  00000+0  88041-3 0  9991
2 67135  51.8769  77.7620 0002055  52.9501 307.1670 15.30857421 13401
KUIPER-00179            
1 67136U 25301D   26066.16670139 -.01439947  00000+0 -94607-1 0  9992
2 67136  51.8844  78.5059 0002616  88.4148 308.9460 15.10392038  5903
KUIPER-00181            
1 67137U 25301E   26066.07753910  .00003029  00000+0  46225-3 0  9992
2 67137  51.9025  88.5856 0001948  91.2965 268.8219 14.76411058 13346
KUIPER-00183            
1 67138U 25301F   26066.16670139 -.00000298  00000+0  23298-5 0  9997
2 67138  51.8672  78.1609 0015254  45.0458  91.9833 15.28554319  5797
KUIPER-00184            
1 67139U 25301G   26066.16670139 -.00747622  00000+0 -24288-1 0  9994
2 67139  51.8638  77.8124 0012055  45.0120 278.2830 15.33926921  5728
KUIPER-00186            
1 67140U 25301H   26066.07935262  .00003783  00000+0  52430-3 0  9990
2 67140  51.9009  89.6536 0000814 113.6627 246.4421 14.79990782 13171
KUIPER-00187            
1 67141U 25301J   26066.07661457  .00004160  00000+0  57428-3 0  9995
2 67141  51.9019  92.1766 0000832 110.1242 249.9810 14.79935697 13132
KUIPER-00188            
1 67142U 25301K   26066.07805645  .00047437  00000+0  12532-2 0  9995
2 67142  51.8688  77.9631 0009836  37.1798 322.9868 15.37922872 13336
KUIPER-00191            
1 67143U 25301L   26066.16670139 -.00039377  00000+0 -48341-2 0  9997
2 67143  51.8999  84.3448 0004171  54.4870 177.7139 14.82693891  5175
KUIPER-00196            
1 67144U 25301M   26066.03311519  .00037990  00000+0  98324-3 0  9992
2 67144  51.8685  77.6893 0003883  16.4321 343.6792 15.38693586 13334
KUIPER-00204            
1 67145U 25301N   26066.04005050  .00019961  00000+0  77672-3 0  9995
2 67145  51.8849  82.8445 0003082 346.2587  13.8310 15.25996958 13378
KUIPER-00210            
1 67146U 25301P   26066.16670139 -.00049180  00000+0 -59500-2 0  9992
2 67146  51.8990  84.3386 0007102  65.0223 331.6524 14.83390903  5850
KUIPER-00221            
1 67147U 25301Q   26066.11037449 -.00001623  00000+0 -18394-3 0  9996
2 67147  51.9000  92.0098 0000730  66.3197 293.7841 14.79933243 13140
KUIPER-00232            
1 67148U 25301R   26066.16670139 -.01101286  00000+0 -69246-1 0  9998
2 67148  51.8890  78.3104 0003293 135.5330 287.4915 15.11639990  5576
KUIPER-00241            
1 67149U 25301S   26066.04816586 -.00025938  00000+0 -33876-2 0  9993
2 67149  51.9020  87.2918 0000976 109.7534 250.3534 14.79919538 13532
KUIPER-00245            
1 67150U 25301T   26066.10771336 -.00007857  00000+0 -10038-2 0  9990
2 67150  51.9015  94.5439 0000842 121.5941 238.5104 14.79889528 13102
KUIPER-00246            
1 67151U 25301U   26066.16670139 -.00542700  00000+0 -41419-1 0  9993
2 67151  51.8887  79.8593 0004944  59.4795  34.8491 15.03970962  5758
